{"fetched_at":"2026-03-29T02:12:04Z","count":15717,"tles":[{"name":"SUPERVIEW NEO-2 OBJECT B","line1":"1 68378U 26062B   26086.04924529  .00003139  00000+0  14873-3 0  9996","line2":"2 68378  97.4356  94.5245 0010396 272.3840  87.6205 15.20012563   173","category":"Other"}]}